{"epoch":1784799577,"count":18318,"objects":[{"id":"26407","name":"NAVSTAR 48 (USA 151)","type":"PAYLOAD","l1":"1 26407U 00040A   26203.87248935  .00000086  00000-0  00000-0 0  9996","l2":"2 26407  54.8478 213.7447 0120310 302.8398 186.9188  2.00558029190669"},{"id":"27663","name":"NAVSTAR 51 (USA 166)","type":"PAYLOAD","l1":"1 27663U 03005A   26203.02122582  .00000081  00000-0  00000-0 0  9996","l2":"2 27663  54.8783 213.5847 0148436  53.1965 318.1453  2.00558761172016"},{"id":"28190","name":"NAVSTAR 54 (USA 177)","type":"PAYLOAD","l1":"1 28190U 04009A   26203.10079940 -.00000041  00000-0  00000-0 0  9992","l2":"2 28190  54.8010 274.2748 0117387 174.6364  46.5669  2.00553594163641"},{"id":"28474","name":"NAVSTAR 56 (USA 180)","type":"PAYLOAD","l1":"1 28474U 04045A   26203.72416769 -.00000112  00000-0  00000-0 0  9998","l2":"2 28474  55.1131 323.4649 0170333 317.2409  59.2092  2.00557577159142"},{"id":"28874","name":"NAVSTAR 57 (USA 183)","type":"PAYLOAD","l1":"1 28874U 05038A   26202.81402546 -.00000037  00000-0  00000-0 0  9998","l2":"2 28874  54.8504 271.7781 0128325 296.5020 107.5834  2.00563382152538"},{"id":"28899","name":"INMARSAT 4-F2","type":"PAYLOAD","l1":"1 28899U 05044A   26203.92787701 -.00000260  00000-0  00000-0 0  9992","l2":"2 28899   5.1415  43.6878 0003000  62.0566 312.4526  1.00271809 75887"},{"id":"29486","name":"NAVSTAR 58 (USA 190)","type":"PAYLOAD","l1":"1 29486U 06042A   26203.90730398  .00000012  00000-0  00000-0 0  9996","l2":"2 29486  54.7132 149.9207 0107400  55.3867 317.1838  2.00567878145117"},{"id":"29601","name":"NAVSTAR 59 (USA 192)","type":"PAYLOAD","l1":"1 29601U 06052A   26202.32243536  .00000075  00000-0  00000-0 0  9993","l2":"2 29601  54.9318 212.6530 0084749  91.0110 269.9907  2.00560107144094"},{"id":"32260","name":"NAVSTAR 60 (USA 196)","type":"PAYLOAD","l1":"1 32260U 07047A   26203.62553203 -.00000073  00000-0  00000-0 0  9991","l2":"2 32260  54.1215  78.6047 0168029  88.1689 273.8107  2.00553740137523"},{"id":"32275","name":"COSMOS 2433 (GLONASS)","type":"PAYLOAD","l1":"1 32275U 07052A   26203.10996669 -.00000090  00000-0  00000-0 0  9992","l2":"2 32275  65.5549 314.7579 0003748 204.3382 155.6620  2.13104093145801"},{"id":"32276","name":"COSMOS 2432 (GLONASS)","type":"PAYLOAD","l1":"1 32276U 07052B   26202.71222580 -.00000089  00000-0  00000-0 0  9991","l2":"2 32276  65.5711 314.9000 0007376 320.6767  37.9431  2.13103052145811"},{"id":"32384","name":"NAVSTAR 61 (USA 199)","type":"PAYLOAD","l1":"1 32384U 07062A   26203.44714995 -.00000034  00000-0  00000-0 0  9999","l2":"2 32384  55.0037 272.7334 0036068 168.2064 191.1622  2.00562126136219"},{"id":"32393","name":"COSMOS 2434 (GLONASS)","type":"PAYLOAD","l1":"1 32393U 07065A   26201.60474382  .00000086  00000-0  00000-0 0  9997","l2":"2 32393  64.3202 190.7886 0001234 328.2500 206.6629  2.13101204144484"},{"id":"32395","name":"COSMOS 2436 (GLONASS)","type":"PAYLOAD","l1":"1 32395U 07065C   26203.78723866  .00000092  00000-0  00000-0 0  9991","l2":"2 32395  64.3286 190.7876 0017305 353.6941 187.7106  2.13100068144480"},{"id":"32711","name":"NAVSTAR 62 (USA 201)","type":"PAYLOAD","l1":"1 32711U 08012A   26202.53637968  .00000024  00000-0  00000-0 0  9990","l2":"2 32711  54.5004 148.5525 0211735 248.2108 109.5034  2.00573366134448"},{"id":"35752","name":"NAVSTAR 64 (USA 206)","type":"PAYLOAD","l1":"1 35752U 09043A   26203.53798519 -.00000082  00000-0  00000-0 0  9999","l2":"2 35752  56.2325  26.0647 0053647  84.7105 285.5515  2.00552541124071"},{"id":"36111","name":"COSMOS 2456 (GLONASS)","type":"PAYLOAD","l1":"1 36111U 09070A   26202.30013477 -.00000053  00000-0  00000-0 0  9994","l2":"2 36111  65.0317  69.8088 0003430 344.1065 162.6207  2.13103502129157"},{"id":"36112","name":"COSMOS 2457 (GLONASS)","type":"PAYLOAD","l1":"1 36112U 09070B   26203.13698076 -.00000052  00000-0  00000-0 0  9990","l2":"2 36112  65.0178  69.6233 0004395 122.7671  73.0536  2.13101025129177"},{"id":"36402","name":"COSMOS 2460 (GLONASS)","type":"PAYLOAD","l1":"1 36402U 10007C   26202.40772837 -.00000088  00000-0  00000-0 0  9990","l2":"2 36402  65.3983 313.3083 0001853 154.3387 203.9833  2.13101549127453"},{"id":"36585","name":"NAVSTAR 65 (USA 213)","type":"PAYLOAD","l1":"1 36585U 10022A   26203.35751557  .00000085  00000-0  00000-0 0  9996","l2":"2 36585  54.2681 207.1453 0126901  66.1639 294.0229  2.00564201118296"},{"id":"36828","name":"BEIDOU 5","type":"PAYLOAD","l1":"1 36828U 10036A   26203.83497221 -.00000090  00000-0  00000-0 0  9996","l2":"2 36828  54.3079 162.6381 0059060 225.2794 320.0279  1.00261993 58451"},{"id":"37210","name":"BEIDOU 6","type":"PAYLOAD","l1":"1 37210U 10057A   26203.85983729 -.00000112  00000-0  00000-0 0  9995","l2":"2 37210   3.7336  68.7236 0005248 183.3998 157.9688  1.00273222 57644"},{"id":"37256","name":"BEIDOU 7","type":"PAYLOAD","l1":"1 37256U 10068A   26202.87819282 -.00000198  00000-0  00000-0 0  9994","l2":"2 37256  47.4828 271.3972 0057045 214.5351 238.1175  1.00271863 57143"},{"id":"37384","name":"BEIDOU 8","type":"PAYLOAD","l1":"1 37384U 11013A   26202.49436278 -.00000172  00000-0  00000-0 0  9997","l2":"2 37384  62.4558  39.8259 0035881 183.5212 359.9880  1.00259347 56004"},{"id":"37605","name":"GSAT 8","type":"PAYLOAD","l1":"1 37605U 11022A   26203.91089939  .00000087  00000-0  00000-0 0  9993","l2":"2 37605   2.2208  81.3897 0002527 150.2244  92.0344  1.00272249 53576"},{"id":"37763","name":"BEIDOU 9","type":"PAYLOAD","l1":"1 37763U 11038A   26203.99265681 -.00000035  00000-0  00000-0 0  9997","l2":"2 37763  54.6048 165.3543 0160072 231.4898 355.6942  1.00278691 55001"},{"id":"37846","name":"GALILEO-PFM","type":"PAYLOAD","l1":"1 37846U 11060A   26203.04348625 -.00000107  00000-0  00000-0 0  9990","l2":"2 37846  56.9816 340.8168 0002032  64.0635 295.9520  1.70475789 91714"},{"id":"37847","name":"GALILEO-FM2","type":"PAYLOAD","l1":"1 37847U 11060B   26202.38421657 -.00000107  00000-0  00000-0 0  9994","l2":"2 37847  56.9829 340.8353 0001996   5.2866 355.7737  1.70476023 91713"},{"id":"37867","name":"COSMOS 2476 (GLONASS)","type":"PAYLOAD","l1":"1 37867U 11064A   26202.35733743 -.00000053  00000-0  00000-0 0  9999","l2":"2 37867  65.2896  71.7181 0022039 235.5042 223.4275  2.13103526114498"},{"id":"37868","name":"COSMOS 2477 (GLONASS)","type":"PAYLOAD","l1":"1 37868U 11064B   26203.63180419 -.00000050  00000-0  00000-0 0  9995","l2":"2 37868  65.2968  71.7547 0019089 236.1337 300.7696  2.13102887114518"},{"id":"37869","name":"COSMOS 2475 (GLONASS)","type":"PAYLOAD","l1":"1 37869U 11064C   26203.69888450 -.00000049  00000-0  00000-0 0  9990","l2":"2 37869  65.3038  71.7744 0024516 250.3565 292.9774  2.13101708114520"}]}